[{"OBJECT_NAME":"OBJECT J","OBJECT_ID":"2023-085J","EPOCH":"2026-03-09T22:47:59.920512","MEAN_MOTION":15.31507187,"ECCENTRICITY":0.00067028,"INCLINATION":97.4828,"RA_OF_ASC_NODE":180.1819,"ARG_OF_PERICENTER":41.7877,"MEAN_ANOMALY":318.3875,"EPHEMERIS_TYPE":0,"CLASSIFICATION_TYPE":"U","NORAD_CAT_ID":57012,"ELEMENT_SET_NO":999,"REV_AT_EPOCH":15156,"BSTAR":0.00064525349,"MEAN_MOTION_DOT":0.00019595,"MEAN_MOTION_DDOT":0},{"OBJECT_NAME":"STARLINK-34239","OBJECT_ID":"2025-144E","EPOCH":"2026-03-09T14:58:48.731232","MEAN_MOTION":15.30186319,"ECCENTRICITY":0.0001334,"INCLINATION":53.1602,"RA_OF_ASC_NODE":181.2192,"ARG_OF_PERICENTER":77.2019,"MEAN_ANOMALY":282.9131,"EPHEMERIS_TYPE":0,"CLASSIFICATION_TYPE":"U","NORAD_CAT_ID":64728,"ELEMENT_SET_NO":999,"REV_AT_EPOCH":3970,"BSTAR":0.0011737,"MEAN_MOTION_DOT":0.0003455,"MEAN_MOTION_DDOT":0}]
